[{"OBJECT_NAME":"STARLINK-31035","OBJECT_ID":"2023-192B","EPOCH":"2026-03-09T23:20:57.031584","MEAN_MOTION":15.30222302,"ECCENTRICITY":7.916e-5,"INCLINATION":53.1615,"RA_OF_ASC_NODE":48.2681,"ARG_OF_PERICENTER":112.6293,"MEAN_ANOMALY":247.4792,"EPHEMERIS_TYPE":0,"CLASSIFICATION_TYPE":"U","NORAD_CAT_ID":58532,"ELEMENT_SET_NO":999,"REV_AT_EPOCH":12621,"BSTAR":0.00015725891,"MEAN_MOTION_DOT":4.304e-5,"MEAN_MOTION_DDOT":0},{"OBJECT_NAME":"CZ-4B R\/B","OBJECT_ID":"2024-208C","EPOCH":"2026-03-09T16:49:23.143584","MEAN_MOTION":15.26980605,"ECCENTRICITY":0.01307988,"INCLINATION":97.9574,"RA_OF_ASC_NODE":113.1946,"ARG_OF_PERICENTER":150.913,"MEAN_ANOMALY":209.9477,"EPHEMERIS_TYPE":0,"CLASSIFICATION_TYPE":"U","NORAD_CAT_ID":61938,"ELEMENT_SET_NO":999,"REV_AT_EPOCH":7308,"BSTAR":0.00035146236,"MEAN_MOTION_DOT":0.000119,"MEAN_MOTION_DDOT":0}]
